{
  "norad_id": 62449,
  "name": "STARLINK-32723",
  "history": [
    {
      "epoch": "2026-03-28T17:19:25.129632",
      "apogee_km": 476.03126198666087,
      "perigee_km": 474.35205939821844,
      "latitude_deg": -9.707323303218537,
      "longitude_deg": 134.19458847981878,
      "semi_major_axis_km": 6853.328660692439,
      "eccentricity": 0.00012251,
      "inclination_deg": 53.1581,
      "raan_deg": 246.8058,
      "arg_perigee_deg": 73.8881,
      "mean_anomaly_deg": 286.2254,
      "mean_motion_rev_day": 15.3020784
    }
  ]
}