{"fetched_at":"2026-03-29T16:36:15Z","count":15609,"tles":[{"name":"STARLINK-32723","line1":"1 62449U 24251T   26087.72181863  .00026633  00000+0  90789-3 0  9993","line2":"2 62449  53.1581 246.8058 0001225  73.8881 286.2254 15.30207840 70701","category":"Starlink"}]}